COSMOS 2569 (703K)      
1 57517U 23114A   26087.54112750  .00000041  00000+0  00000+0 0  9997
2 57517  65.2574  75.3385 0012907 293.4527  66.4203  2.13103807 20545
